OBJECT C                
1 57582U 23117C   24262.18467814  .00015368  00000+0  74972-3 0  9990
2 57582  97.4792 333.0709 0009317 336.8362  23.2450 15.18354735 61288
